GLOBALSTAR M024         
1 25883U 99043A   25159.00017532 -.00000057  00000+0  26983-3 0  9994
2 25883  52.0052  41.3505 0002100  76.5978 296.2359 11.10168891113844
GLOBALSTAR M027         
1 25884U 99043B   25159.17322831 -.00000102  00000+0 -14662-2 0  9996
2 25884  52.0189 118.6861 0021809 337.3051  22.6776 11.04372351140245
GLOBALSTAR M053         
1 25886U 99043D   25159.37394347 -.00000036  00000+0  94691-3 0  9997
2 25886  51.9949 193.6259 0002810  67.4222 305.7438 11.27665693118452
GLOBALSTAR M058         
1 25907U 99049A   25159.34549161 -.00000073  00000+0  15731-3 0  9999
2 25907  51.9916 132.7835 0001928 256.6519 103.4101 11.93200322540483
GLOBALSTAR M050         
1 25908U 99049B   25159.37676483 -.00000026  00000+0  70771-3 0  9994
2 25908  51.9960 141.0342 0009325  13.0551 134.5720 12.07455205147123
GLOBALSTAR M033         
1 25909U 99049C   25159.50383089 -.00000094  00000+0 -22837-4 0  9994
2 25909  51.9936  13.1171 0012851 244.0758 115.8765 12.20293014534684
GLOBALSTAR M055         
1 25910U 99049D   25159.15124932 -.00000069  00000+0  21400-3 0  9992
2 25910  52.0040  25.2975 0007690 109.2219 250.9466 12.29428391167171
